EPOCH,NORAD_CAT_ID,MEAN_MOTION,ECCENTRICITY,INCLINATION,RA_OF_ASC_NODE,ARG_OF_PERICENTER,MEAN_ANOMALY,MEAN_MOTION_DOT,BSTAR,TLE_LINE1,TLE_LINE2
2024-07-10 21:29:59,50803,15.08845817,0.0001225,53.2173,13.1244,79.5738,280.5392,0.00001018,0.000082028,1 50803U 22001A   24192.89582914  .00001018  00000-0  82028-4 0  9999,2 50803  53.2173  13.1244 0001225  79.5738 280.5392 15.08845817140071
2024-07-11 11:48:28,50803,15.08842889,0.0001447,53.2174,10.4492,78.0999,282.0156,0.00000219,0.000031867,1 50803U 22001A   24193.49199286  .00000219  00000-0  31867-4 0  9999,2 50803  53.2174  10.4492 0001447  78.0999 282.0156 15.08842889138894
2024-07-11 18:10:00,50803,15.08847391,0.0001428,53.2153,9.2589,79.107,281.0083,0.00000565,0.000053556,1 50803U 22001A   24193.75694793  .00000565  00000-0  53556-4 0  9994,2 50803  53.2153   9.2589 0001428  79.1070 281.0083 15.08847391138931
2024-07-12 11:39:15,50803,15.0882912,0.0000942,53.2216,5.9842,112.7363,247.3729,0.00001926,0.0001391,1 50803U 22001A   24194.48559528  .00001926  00000-0  13910-3 0  9992,2 50803  53.2216   5.9842 0000942 112.7363 247.3729 15.08829120140312
2024-07-12 14:50:01,50803,15.08840954,0.0001659,53.2183,5.3925,88.2498,271.8684,-0.00000339,-0.0000031809,1 50803U 22001A   24194.61807504 -.00000339  00000-0 -31809-5 0  9995,2 50803  53.2183   5.3925 0001659  88.2498 271.8684 15.08840954139063
2024-07-12 18:00:47,50803,15.08841745,0.0001574,53.2181,4.7975,88.0186,272.0987,-0.00000236,0.0000032731,1 50803U 22001A   24194.75055390 -.00000236  00000-0  32731-5 0  9998,2 50803  53.2181   4.7975 0001574  88.0186 272.0987 15.08841745140359
2024-07-12 21:11:33,50803,15.08848153,0.000111,53.219,4.201,95.8325,264.2794,-0.00000641,-0.000022157,1 50803U 22001A   24194.88302848 -.00000641  00000-0 -22157-4 0  9996,2 50803  53.2190   4.2010 0001110  95.8325 264.2794 15.08848153139101
2024-07-12 21:11:33,50803,15.08848153,0.000111,53.219,4.201,95.8325,264.2794,-0.00000641,-0.000022157,1 50803U 22001A   24194.88302848 -.00000641  00000-0 -22157-4 0  9996,2 50803  53.2190   4.2010 0001110  95.8325 264.2794 15.08848153140372
2024-07-13 14:40:48,50803,15.08838397,0.0001208,53.2182,0.9286,95.2847,264.8283,-0.00001341,-0.000066187,1 50803U 22001A   24195.61167778 -.00001341  00000-0 -66187-4 0  9998,2 50803  53.2182   0.9286 0001208  95.2847 264.8283 15.08838397139211
2024-07-13 17:51:34,50803,15.08841879,0.0001265,53.2183,0.3331,106.6872,253.4259,-0.00000237,0.0000031918,1 50803U 22001A   24195.74415350 -.00000237  00000-0  31918-5 0  9991,2 50803  53.2183   0.3331 0001265 106.6872 253.4259 15.08841879140505
2024-07-13 17:51:34,50803,15.08841879,0.0001265,53.2183,0.3331,106.6872,253.4259,-0.00000237,0.0000031918,1 50803U 22001A   24195.74415350 -.00000237  00000-0  31918-5 0  9991,2 50803  53.2183   0.3331 0001265 106.6872 253.4259 15.08841879139233
2024-07-14 14:31:35,50803,15.08840231,0.0001368,53.2182,356.4695,96.6555,263.4593,0.00001206,0.000093874,1 50803U 22001A   24196.60527417  .00001206  00000-0  93874-4 0  9999,2 50803  53.2182 356.4695 0001368  96.6555 263.4593 15.08840231139367
2024-07-14 17:42:21,50803,15.08843139,0.0001271,53.2188,355.8794,91.8898,268.2239,0.00002157,0.00015357,1 50803U 22001A   24196.73775135  .00002157  00000-0  15357-3 0  9990,2 50803  53.2188 355.8794 0001271  91.8898 268.2239 15.08843139139388
2024-07-15 03:14:40,50803,15.08839964,0.0001155,53.2183,354.0906,83.6751,276.4373,-0.00000057,0.000014529,1 50803U 22001A   24197.13519623 -.00000057  00000-0  14529-4 0  9992,2 50803  53.2183 354.0906 0001155  83.6751 276.4373 15.08839964140717
2024-07-15 14:22:23,50803,15.08832277,0.0001398,53.2195,352.0141,101.7352,258.3797,-0.00000376,-0.0000055249,1 50803U 22001A   24197.59888639 -.00000376  00000-0 -55249-5 0  9998,2 50803  53.2195 352.0141 0001398 101.7352 258.3797 15.08832277139512
2024-07-15 20:43:55,50803,15.08844369,0.0001251,53.2188,350.8199,89.8357,270.2778,0.00001206,0.000093848,1 50803U 22001A   24197.86383567  .00001206  00000-0  93848-4 0  9995,2 50803  53.2188 350.8199 0001251  89.8357 270.2778 15.08844369139553
2024-07-16 03:05:28,50803,15.08836027,0.0001245,53.2184,349.6301,90.639,269.4745,0.00000313,0.000037757,1 50803U 22001A   24198.12880325  .00000313  00000-0  37757-4 0  9994,2 50803  53.2184 349.6301 0001245  90.6390 269.4745 15.08836027140862
2024-07-16 14:13:10,50803,15.08841607,0.0001125,53.2182,347.5451,72.0181,288.0934,-0.00000066,0.000013919,1 50803U 22001A   24198.59248101 -.00000066  00000-0  13919-4 0  9995,2 50803  53.2182 347.5451 0001125  72.0181 288.0934 15.08841607139665
2024-07-16 17:23:55,50803,15.08857635,0.00011,53.2179,346.9548,95.8807,264.2311,0.00001993,0.00014323,1 50803U 22001A   24198.72494691  .00001993  00000-0  14323-3 0  9995,2 50803  53.2179 346.9548 0001100  95.8807 264.2311 15.08857635139687
2024-07-17 02:56:14,50803,15.08852363,0.0001257,53.2184,345.1693,70.0593,290.0534,0.00000257,0.000034223,1 50803U 22001A   24199.12239206  .00000257  00000-0  34223-4 0  9993,2 50803  53.2184 345.1693 0001257  70.0593 290.0534 15.08852363141012
2024-07-17 09:17:48,50803,15.08831952,0.0001675,53.2189,343.9844,85.9683,274.15,0.00001018,0.000082087,1 50803U 22001A   24199.38736671  .00001018  00000-0  82087-4 0  9996,2 50803  53.2189 343.9844 0001675  85.9683 274.1500 15.08831952141051
2024-07-17 14:03:58,50803,15.08829828,0.0001333,53.2182,343.0915,84.8185,275.2959,0.00000783,0.000067293,1 50803U 22001A   24199.58609014  .00000783  00000-0  67293-4 0  9998,2 50803  53.2182 343.0915 0001333  84.8185 275.2959 15.08829828139810
2024-07-17 17:14:43,50803,15.08848389,0.0001213,53.2184,342.4929,70.8573,289.255,0.00000995,0.000080574,1 50803U 22001A   24199.71855882  .00000995  00000-0  80574-4 0  9991,2 50803  53.2184 342.4929 0001213  70.8573 289.2550 15.08848389141103
2024-07-17 17:14:43,50803,15.08848389,0.0001213,53.2184,342.4929,70.8573,289.255,0.00000995,0.000080574,1 50803U 22001A   24199.71855882  .00000995  00000-0  80574-4 0  9991,2 50803  53.2184 342.4929 0001213  70.8573 289.2550 15.08848389139830
2024-07-18 09:08:35,50803,15.08833316,0.0000816,53.2178,339.5193,86.2822,273.8264,0.00000857,0.000071905,1 50803U 22001A   24200.38096864  .00000857  00000-0  71905-4 0  9999,2 50803  53.2178 339.5193 0000816  86.2822 273.8264 15.08833316141208
2024-07-18 13:54:44,50803,15.08842337,0.0001401,53.2178,338.6323,69.9443,290.17,0.00000896,0.000074397,1 50803U 22001A   24200.57968540  .00000896  00000-0  74397-4 0  9990,2 50803  53.2178 338.6323 0001401  69.9443 290.1700 15.08842337139961
2024-07-18 15:30:07,50803,15.08842901,0.0001127,53.2181,338.3335,87.1337,272.9784,0.00000989,0.00008022,1 50803U 22001A   24200.64592382  .00000989  00000-0  80220-4 0  9990,2 50803  53.2181 338.3335 0001127  87.1337 272.9784 15.08842901141245
2024-07-18 15:30:07,50803,15.08842901,0.0001127,53.2181,338.3335,87.1337,272.9784,0.00000989,0.00008022,1 50803U 22001A   24200.64592382  .00000989  00000-0  80220-4 0  9990,2 50803  53.2181 338.3335 0001127  87.1337 272.9784 15.08842901139972
2024-07-19 15:20:54,50803,15.0884259,0.0001402,53.2187,333.871,90.4248,269.6905,0.00003903,0.00026316,1 50803U 22001A   24201.63951713  .00003903  00000-0  26316-3 0  9991,2 50803  53.2187 333.8710 0001402  90.4248 269.6905 15.08842590140120
2024-07-20 02:28:36,50803,15.08845367,0.00012,53.2173,331.7902,80.0623,280.0504,0.0000195,0.00014058,1 50803U 22001A   24202.10319731  .00001950  00000-0  14058-3 0  9992,2 50803  53.2173 331.7902 0001200  80.0623 280.0504 15.08845367141468
2024-07-20 12:00:56,50803,15.08830859,0.000126,53.2182,330.0068,93.6965,266.4171,-0.00001231,-0.000059314,1 50803U 22001A   24202.50065307 -.00001231  00000-0 -59314-4 0  9992,2 50803  53.2182 330.0068 0001260  93.6965 266.4171 15.08830859141523
2024-07-20 13:36:19,50803,15.08832221,0.0001322,53.2185,329.7094,95.054,265.0604,-0.00001034,-0.000046895,1 50803U 22001A   24202.56689224 -.00001034  00000-0 -46895-4 0  9999,2 50803  53.2185 329.7094 0001322  95.0540 265.0604 15.08832221140265
2024-07-20 15:11:42,50803,15.08834795,0.0001405,53.2189,329.4119,100.2293,259.8858,-0.00000703,-0.000026078,1 50803U 22001A   24202.63313025 -.00000703  00000-0 -26078-4 0  9993,2 50803  53.2189 329.4119 0001405 100.2293 259.8858 15.08834795140271
2024-07-21 13:27:05,50803,15.08846705,0.0001275,53.2186,325.2481,99.4557,260.6579,0.0000053,0.000051355,1 50803U 22001A   24203.56048353  .00000530  00000-0  51355-4 0  9997,2 50803  53.2186 325.2481 0001275  99.4557 260.6579 15.08846705141681
2024-07-21 15:02:28,50803,15.08846751,0.0001332,53.2184,324.9502,99.7801,260.3341,0.00001434,0.00010813,1 50803U 22001A   24203.62672321  .00001434  00000-0  10813-3 0  9999,2 50803  53.2184 324.9502 0001332  99.7801 260.3341 15.08846751140424
2024-07-22 08:31:44,50803,15.08835731,0.0001449,53.2185,321.6814,104.8491,255.2662,0.00003004,0.00020679,1 50803U 22001A   24204.35537051  .00003004  00000-0  20679-3 0  9996,2 50803  53.2185 321.6814 0001449 104.8491 255.2662 15.08835731140534
2024-07-22 08:31:44,50803,15.08835731,0.0001449,53.2185,321.6814,104.8491,255.2662,0.00003004,0.00020679,1 50803U 22001A   24204.35537051  .00003004  00000-0  20679-3 0  9996,2 50803  53.2185 321.6814 0001449 104.8491 255.2662 15.08835731141805
2024-07-23 14:44:03,50803,15.0884791,0.000144,53.2193,316.033,98.5157,261.5999,0.00001564,0.00011632,1 50803U 22001A   24205.61392412  .00001564  00000-0  11632-3 0  9994,2 50803  53.2193 316.0330 0001440  98.5157 261.5999 15.08847910140729
2024-07-23 14:44:03,50803,15.0884791,0.000144,53.2193,316.033,98.5157,261.5999,0.00001564,0.00011632,1 50803U 22001A   24205.61392412  .00001564  00000-0  11632-3 0  9994,2 50803  53.2193 316.0330 0001440  98.5157 261.5999 15.08847910141999
2024-07-25 16:01:00,50803,15.08840692,0.0001446,53.2181,306.8157,98.8241,261.2915,0.0000029,0.000036301,1 50803U 22001A   24207.66736610  .00000290  00000-0  36301-4 0  9999,2 50803  53.2181 306.8157 0001446  98.8241 261.2915 15.08840692142304
